start=new Date('2022-04-17T00:00:00.000Z').valueOf();
sats=[{"MEAN_ANOMALY":"266.9341","LAUNCH_DATE":"2021-12-02","ELEMENT_SET_NO":"999","TLE_LINE1":"1 49742U 21115U   22106.91668981  .00047249  00000-0  29717-2 0  9999","OBJECT_NAME":"STARLINK-3202","ARG_OF_PERICENTER":"38.7879","RCS_SIZE":"LARGE","REF_FRAME":"TEME","CENTER_NAME":"EARTH","MEAN_MOTION_DDOT":"0.0000000000000","EPHEMERIS_TYPE":"0","OBJECT_ID":"2021-115U","DECAY_DATE":null,"MEAN_MOTION":"15.08781837","COUNTRY_CODE":"US","NORAD_CAT_ID":"49742","MEAN_MOTION_DOT":"0.00047249","MEAN_ELEMENT_THEORY":"SGP4","REV_AT_EPOCH":"359","EPOCH":"2022-04-16T22:00:01.999584","SEMIMAJOR_AXIS":"6918.058","GP_ID":"201422599","INCLINATION":"53.2159","RA_OF_ASC_NODE":"56.2103","CLASSIFICATION_TYPE":"U","ECCENTRICITY":"0.00022530","OBJECT_TYPE":"PAYLOAD","TLE_LINE2":"2 49742  53.2159  56.2103 0002253  38.7879 266.9341 15.08781837  3590","TIME_SYSTEM":"UTC","PERIAPSIS":"538.365","APOAPSIS":"541.482","PERIOD":"95.441","BSTAR":"0.00297170000000","SITE":"AFETR","FILE":"3404767"},{"OBJECT_ID":"2021-115V","DECAY_DATE":null,"EPHEMERIS_TYPE":"0","NORAD_CAT_ID":"49743","MEAN_MOTION_DOT":"0.00049079","COUNTRY_CODE":"US","MEAN_MOTION":"15.08784755","TLE_LINE1":"1 49743U 21115V   22106.91668981  .00049079  00000-0  30851-2 0  9994","MEAN_ANOMALY":"317.1256","ELEMENT_SET_NO":"999","LAUNCH_DATE":"2021-12-02","REF_FRAME":"TEME","CENTER_NAME":"EARTH","MEAN_MOTION_DDOT":"0.0000000000000","OBJECT_NAME":"STARLINK-3239","ARG_OF_PERICENTER":"48.5812","RCS_SIZE":"LARGE","OBJECT_TYPE":"PAYLOAD","TLE_LINE2":"2 49743  53.2178  56.2076 0001946  48.5812 317.1256 15.08784755  3579","PERIAPSIS":"538.568","TIME_SYSTEM":"UTC","ECCENTRICITY":"0.00019460","FILE":"3404767","PERIOD":"95.441","APOAPSIS":"541.261","BSTAR":"0.00308510000000","SITE":"AFETR","EPOCH":"2022-04-16T22:00:01.999584","REV_AT_EPOCH":"357","SEMIMAJOR_AXIS":"6918.049","MEAN_ELEMENT_THEORY":"SGP4","GP_ID":"201421851","CLASSIFICATION_TYPE":"U","RA_OF_ASC_NODE":"56.2076","INCLINATION":"53.2178"},{"FILE":"3404767","SITE":"AFETR","BSTAR":"0.00112990000000","APOAPSIS":"541.419","PERIOD":"95.440","PERIAPSIS":"538.331","TIME_SYSTEM":"UTC","TLE_LINE2":"2 49744  53.2091  56.2287 0002232  40.2640 225.4814 15.08797643  3565","OBJECT_TYPE":"PAYLOAD","ECCENTRICITY":"0.00022320","INCLINATION":"53.2091","RA_OF_ASC_NODE":"56.2287","CLASSIFICATION_TYPE":"U","GP_ID":"201421601","SEMIMAJOR_AXIS":"6918.010","EPOCH":"2022-04-16T22:00:01.999584","REV_AT_EPOCH":"356","MEAN_ELEMENT_THEORY":"SGP4","MEAN_MOTION_DOT":"0.00017720","NORAD_CAT_ID":"49744","MEAN_MOTION":"15.08797643","COUNTRY_CODE":"US","DECAY_DATE":null,"OBJECT_ID":"2021-115W","EPHEMERIS_TYPE":"0","MEAN_MOTION_DDOT":"0.0000000000000","CENTER_NAME":"EARTH","REF_FRAME":"TEME","RCS_SIZE":"LARGE","ARG_OF_PERICENTER":"40.2640","OBJECT_NAME":"STARLINK-3231","TLE_LINE1":"1 49744U 21115W   22106.91668981  .00017720  00000-0  11299-2 0  9998","ELEMENT_SET_NO":"999","LAUNCH_DATE":"2021-12-02","MEAN_ANOMALY":"225.4814"},{"MEAN_MOTION_DOT":"0.00002203","NORAD_CAT_ID":"49745","MEAN_MOTION":"15.08809732","COUNTRY_CODE":"US","DECAY_DATE":null,"OBJECT_ID":"2021-115X","EPHEMERIS_TYPE":"0","CENTER_NAME":"EARTH","MEAN_MOTION_DDOT":"0.0000000000000","REF_FRAME":"TEME","RCS_SIZE":"LARGE","OBJECT_NAME":"STARLINK-3241","ARG_OF_PERICENTER":"42.6394","TLE_LINE1":"1 49745U 21115X   22106.91668981  .00002203  00000-0  15660-3 0  9996","MEAN_ANOMALY":"283.0512","ELEMENT_SET_NO":"999","LAUNCH_DATE":"2021-12-02","FILE":"3404767","SITE":"AFETR","PERIOD":"95.439","APOAPSIS":"541.190","BSTAR":"0.00015660000000","PERIAPSIS":"538.485","TIME_SYSTEM":"UTC","OBJECT_TYPE":"PAYLOAD","TLE_LINE2":"2 49745  53.2171  56.2106 0001955  42.6394 283.0512 15.08809732  3566","ECCENTRICITY":"0.00019550","RA_OF_ASC_NODE":"56.2106","INCLINATION":"53.2171","CLASSIFICATION_TYPE":"U","GP_ID":"201422853","SEMIMAJOR_AXIS":"6917.973","EPOCH":"2022-04-16T22:00:01.999584","REV_AT_EPOCH":"356","MEAN_ELEMENT_THEORY":"SGP4"},{"TLE_LINE1":"1 49746U 21115Y   22106.91668981  .00043081  00000-0  27130-2 0  9990","ELEMENT_SET_NO":"999","LAUNCH_DATE":"2021-12-02","MEAN_ANOMALY":"171.6613","MEAN_MOTION_DDOT":"0.0000000000000","CENTER_NAME":"EARTH","REF_FRAME":"TEME","RCS_SIZE":"LARGE","ARG_OF_PERICENTER":"54.0589","OBJECT_NAME":"STARLINK-3233","DECAY_DATE":null,"OBJECT_ID":"2021-115Y","EPHEMERIS_TYPE":"0","MEAN_MOTION_DOT":"0.00043081","NORAD_CAT_ID":"49746","COUNTRY_CODE":"US","MEAN_MOTION":"15.08778637","SEMIMAJOR_AXIS":"6918.068","REV_AT_EPOCH":"359","EPOCH":"2022-04-16T22:00:01.999584","MEAN_ELEMENT_THEORY":"SGP4","RA_OF_ASC_NODE":"56.2563","INCLINATION":"53.2043","CLASSIFICATION_TYPE":"U","GP_ID":"201423100","PERIAPSIS":"538.809","TIME_SYSTEM":"UTC","TLE_LINE2":"2 49746  53.2043  56.2563 0001625  54.0589 171.6613 15.08778637  3595","OBJECT_TYPE":"PAYLOAD","ECCENTRICITY":"0.00016250","FILE":"3404767","SITE":"AFETR","BSTAR":"0.00271300000000","APOAPSIS":"541.057","PERIOD":"95.441"},{"FILE":"3404767","SITE":"AFETR","BSTAR":"0.00009894100000","PERIOD":"95.440","APOAPSIS":"541.188","PERIAPSIS":"538.519","TIME_SYSTEM":"UTC","TLE_LINE2":"2 49747  53.2119  56.2145 0001929  45.2896 240.4143 15.08804636  3598","OBJECT_TYPE":"PAYLOAD","ECCENTRICITY":"0.00019290","INCLINATION":"53.2119","CLASSIFICATION_TYPE":"U","RA_OF_ASC_NODE":"56.2145","GP_ID":"201421351","SEMIMAJOR_AXIS":"6917.988","EPOCH":"2022-04-16T22:00:01.999584","REV_AT_EPOCH":"359","MEAN_ELEMENT_THEORY":"SGP4","MEAN_MOTION_DOT":"0.00001285","NORAD_CAT_ID":"49747","MEAN_MOTION":"15.08804636","COUNTRY_CODE":"US","DECAY_DATE":null,"OBJECT_ID":"2021-115Z","EPHEMERIS_TYPE":"0","MEAN_MOTION_DDOT":"0.0000000000000","CENTER_NAME":"EARTH","REF_FRAME":"TEME","RCS_SIZE":"LARGE","ARG_OF_PERICENTER":"45.2896","OBJECT_NAME":"STARLINK-3247","TLE_LINE1":"1 49747U 21115Z   22106.91668981  .00001285  00000-0  98941-4 0  9991","ELEMENT_SET_NO":"999","LAUNCH_DATE":"2021-12-02","MEAN_ANOMALY":"240.4143"},{"RA_OF_ASC_NODE":"56.1668","INCLINATION":"53.2251","CLASSIFICATION_TYPE":"U","GP_ID":"201422102","SEMIMAJOR_AXIS":"6918.010","REV_AT_EPOCH":"359","EPOCH":"2022-04-16T22:00:01.999584","MEAN_ELEMENT_THEORY":"SGP4","FILE":"3404767","SITE":"AFETR","BSTAR":"0.00109190000000","APOAPSIS":"541.347","PERIOD":"95.440","TIME_SYSTEM":"UTC","PERIAPSIS":"538.404","TLE_LINE2":"2 49748  53.2251  56.1668 0002127  41.0671 144.6634 15.08797571  3590","OBJECT_TYPE":"PAYLOAD","ECCENTRICITY":"0.00021270","MEAN_MOTION_DDOT":"0.0000000000000","CENTER_NAME":"EARTH","REF_FRAME":"TEME","RCS_SIZE":"LARGE","ARG_OF_PERICENTER":"41.0671","OBJECT_NAME":"STARLINK-3248","TLE_LINE1":"1 49748U 21115AA  22106.91668981  .00017112  00000-0  10919-2 0  9995","ELEMENT_SET_NO":"999","LAUNCH_DATE":"2021-12-02","MEAN_ANOMALY":"144.6634","MEAN_MOTION_DOT":"0.00017112","NORAD_CAT_ID":"49748","COUNTRY_CODE":"US","MEAN_MOTION":"15.08797571","DECAY_DATE":null,"OBJECT_ID":"2021-115AA","EPHEMERIS_TYPE":"0"},{"RCS_SIZE":"LARGE","ARG_OF_PERICENTER":"52.4807","OBJECT_NAME":"STARLINK-3250","MEAN_MOTION_DDOT":"0.0000000000000","CENTER_NAME":"EARTH","REF_FRAME":"TEME","LAUNCH_DATE":"2021-12-02","ELEMENT_SET_NO":"999","MEAN_ANOMALY":"193.2904","TLE_LINE1":"1 49749U 21115AB  22106.91668981  .00001361  00000-0  10373-3 0  9990","MEAN_MOTION":"15.08797371","COUNTRY_CODE":"US","MEAN_MOTION_DOT":"0.00001361","NORAD_CAT_ID":"49749","EPHEMERIS_TYPE":"0","DECAY_DATE":null,"OBJECT_ID":"2021-115AB","RA_OF_ASC_NODE":"56.2344","INCLINATION":"53.2072","CLASSIFICATION_TYPE":"U","GP_ID":"201422353","MEAN_ELEMENT_THEORY":"SGP4","SEMIMAJOR_AXIS":"6918.011","EPOCH":"2022-04-16T22:00:01.999584","REV_AT_EPOCH":"359","SITE":"AFETR","BSTAR":"0.00010373000000","APOAPSIS":"540.927","PERIOD":"95.440","FILE":"3404767","ECCENTRICITY":"0.00015200","TIME_SYSTEM":"UTC","PERIAPSIS":"538.824","TLE_LINE2":"2 49749  53.2072  56.2344 0001520  52.4807 193.2904 15.08797371  3595","OBJECT_TYPE":"PAYLOAD"},{"EPHEMERIS_TYPE":"0","OBJECT_ID":"2021-115AC","DECAY_DATE":null,"MEAN_MOTION":"15.08800710","COUNTRY_CODE":"US","NORAD_CAT_ID":"49750","MEAN_MOTION_DOT":"0.00019505","ELEMENT_SET_NO":"999","LAUNCH_DATE":"2021-12-02","MEAN_ANOMALY":"106.7315","TLE_LINE1":"1 49750U 21115AC  22106.91668981  .00019505  00000-0  12415-2 0  9999","ARG_OF_PERICENTER":"38.9820","OBJECT_NAME":"STARLINK-3236","RCS_SIZE":"LARGE","REF_FRAME":"TEME","MEAN_MOTION_DDOT":"0.0000000000000","CENTER_NAME":"EARTH","ECCENTRICITY":"0.00019920","TLE_LINE2":"2 49750  53.2200  56.1859 0001992  38.9820 106.7315 15.08800710  3594","OBJECT_TYPE":"PAYLOAD","PERIAPSIS":"538.487","TIME_SYSTEM":"UTC","BSTAR":"0.00124150000000","PERIOD":"95.440","APOAPSIS":"541.244","SITE":"AFETR","FILE":"3404767","MEAN_ELEMENT_THEORY":"SGP4","EPOCH":"2022-04-16T22:00:01.999584","REV_AT_EPOCH":"359","SEMIMAJOR_AXIS":"6918.000","GP_ID":"201422600","INCLINATION":"53.2200","RA_OF_ASC_NODE":"56.1859","CLASSIFICATION_TYPE":"U"},{"MEAN_ELEMENT_THEORY":"SGP4","REV_AT_EPOCH":"359","EPOCH":"2022-04-16T22:00:01.999584","SEMIMAJOR_AXIS":"6917.874","GP_ID":"201421852","INCLINATION":"53.2277","RA_OF_ASC_NODE":"56.1505","CLASSIFICATION_TYPE":"U","ECCENTRICITY":"0.00019470","TLE_LINE2":"2 49751  53.2277  56.1505 0001947  48.8595 156.9004 15.08842203  3591","OBJECT_TYPE":"PAYLOAD","TIME_SYSTEM":"UTC","PERIAPSIS":"538.392","BSTAR":"0.00012754000000","APOAPSIS":"541.086","PERIOD":"95.437","SITE":"AFETR","FILE":"3404767","LAUNCH_DATE":"2021-12-02","ELEMENT_SET_NO":"999","MEAN_ANOMALY":"156.9004","TLE_LINE1":"1 49751U 21115AD  22106.91668981  .00001742  00000-0  12754-3 0  9991","ARG_OF_PERICENTER":"48.8595","OBJECT_NAME":"STARLINK-3229","RCS_SIZE":"LARGE","REF_FRAME":"TEME","MEAN_MOTION_DDOT":"0.0000000000000","CENTER_NAME":"EARTH","EPHEMERIS_TYPE":"0","OBJECT_ID":"2021-115AD","DECAY_DATE":null,"COUNTRY_CODE":"US","MEAN_MOTION":"15.08842203","NORAD_CAT_ID":"49751","MEAN_MOTION_DOT":"0.00001742"}];
